COSMOS 2419 (714)       
1 28915U 05050A   17163.53506910 -.00000029  00000-0  00000-0 0  9994
2 28915  65.4948  66.0065 0017240 353.2078 119.2707  2.13107186 89236
COSMOS 2425 (716)       
1 29670U 06062A   17163.82960088 -.00000021  00000-0  10000-3 0  9995
2 29670  65.4632 305.0084 0020501 350.4852  40.1264  2.13104876 81443
COSMOS 2426 (717)       
1 29671U 06062B   17163.64941183 -.00000022  00000-0  10000-3 0  9992
2 29671  65.4823 305.1052 0018270 159.8893 310.8488  2.13102870 81445
COSMOS 2424 (715)       
1 29672U 06062C   17163.68086988 -.00000021  00000-0  10000-3 0  9999
2 29672  65.4667 305.0253 0017826 158.6716 151.5151  2.13102275 81436
COSMOS 2433 (720)       
1 32275U 07052A   17163.74623878 -.00000029  00000-0  10000-3 0  9992
2 32275  65.5094  65.7805 0002989 301.6356 217.1212  2.13104582 74950
COSMOS 2432 (719)       
1 32276U 07052B   17163.65579381 -.00000029  00000-0  10000-3 0  9992
2 32276  65.5201  65.8553 0013106 339.1556  63.1114  2.13104086 74952
COSMOS 2434 (721)       
1 32393U 07065A   17163.63384214 -.00000022  00000-0  00000-0 0  9992
2 32393  65.0806 304.1669 0005853 109.1286 213.0152  2.13102890 73655
COSMOS 2436 (723)       
1 32395U 07065C   17163.74440314 -.00000021  00000-0  10000-3 0  9993
2 32395  65.0905 304.2095 0014623   7.4091  88.2185  2.13104280 73596
COSMOS 2443 (725)       
1 33379U 08046B   17163.34688345 -.00000030  00000-0  00000-0 0  9996
2 33379  65.4375  65.1769 0011463 180.1987 292.7656  2.13099445 67805
COSMOS 2456 (730)       
1 36111U 09070A   17163.61335490  .00000075  00000-0  00000-0 0  9999
2 36111  64.1798 183.7345 0006411 298.7371 178.7710  2.13102928 58326
COSMOS 2457 (733)       
1 36112U 09070B   17163.79655616  .00000076  00000-0  00000-0 0  9995
2 36112  64.1619 183.6464 0006354 191.0562 195.5765  2.13101629 58338
COSMOS 2458 (734)       
1 36113U 09070C   17163.73594505  .00000076  00000-0  10000-3 0  9993
2 36113  64.1677 183.6565 0002730 300.0291  88.0986  2.13102058 58338
COSMOS 2459 (731)       
1 36400U 10007A   17163.90253955 -.00000029  00000-0  10000-3 0  9993
2 36400  65.4181  64.8822 0029196 353.0728 147.7144  2.13102245 56688
COSMOS 2461 (735)       
1 36401U 10007B   17163.53297650 -.00000030  00000-0  10000-3 0  9995
2 36401  65.4114  64.8714 0007466  55.1221  72.7520  2.13102311 56677
COSMOS 2460 (732)       
1 36402U 10007C   17163.53079450 -.00000030  00000-0  10000-3 0  9992
2 36402  65.4013  64.8451 0002002   5.5200 161.9644  2.13101665 56670
COSMOS 2465 (737)       
1 37138U 10041B   17163.71274539 -.00000022  00000-0  00000-0 0  9999
2 37138  64.6784 304.1550 0036072 169.7461 257.9286  2.13106952 52756
COSMOS 2464 (736)       
1 37139U 10041C   17163.49063487 -.00000024  00000-0  00000-0 0  9995
2 37139  64.6860 304.1610 0023135  17.0815  62.9371  2.13102575 52748
COSMOS 2471 (701K)      
1 37372U 11009A   17163.69106564 -.00000030  00000-0  00000-0 0  9992
2 37372  65.3992  64.7854 0007268 242.5147 183.9701  2.13107544 48952
COSMOS 2474 (742)       
1 37829U 11055A   17163.68468377  .00000076  00000-0  00000-0 0  9991
2 37829  64.5045 184.2931 0010690 253.4351 138.6090  2.13101940 44323
COSMOS 2476 (744)       
1 37867U 11064A   17163.70519394  .00000076  00000-0  00000-0 0  9992
2 37867  64.4840 184.3656 0019932 246.7681 206.9537  2.13102012 43674
COSMOS 2477 (745)       
1 37868U 11064B   17163.57207781  .00000075  00000-0  00000-0 0  9991
2 37868  64.4927 184.4140 0017825 248.2066 282.5099  2.13101855 43625
COSMOS 2475 (743)       
1 37869U 11064C   17163.63580458  .00000076  00000-0  00000-0 0  9995
2 37869  64.4992 184.4028 0022791 271.2446 264.7481  2.13102002 43632
COSMOS 2485 (747)       
1 39155U 13019A   17163.55705569  .00000076  00000-0  00000-0 0  9990
2 39155  64.6535 184.3983 0020211 241.9635 143.1282  2.13102027 32145
COSMOS 2492 (754)       
1 39620U 14012A   17163.89133547 -.00000030  00000-0  10000-3 0  9994
2 39620  65.2909  64.7696 0016410 334.6848 341.0056  2.13103404 25092
COSMOS 2500 (755)       
1 40001U 14032A   17163.74225279 -.00000030  00000-0  00000-0 0  9995
2 40001  65.2303  64.7704 0004269 216.3516 208.0144  2.13102877 23318
COSMOS 2501 (702K)      
1 40315U 14075A   17163.56826634 -.00000025  00000-0  00000-0 0  9996
2 40315  64.4124 305.5014 0014611 203.8522 253.1435  2.13098547 19719
COSMOS 2514 (751)       
1 41330U 16008A   17163.63659561 -.00000030  00000-0  00000-0 0  9999
2 41330  65.0316  64.9211 0007744 223.6060 299.6801  2.13103407 10476
COSMOS 2516 (753)       
1 41554U 16032A   17163.74066471 -.00000023  00000-0  00000-0 0  9990
2 41554  64.6333 305.2596 0010886 212.9125 282.8267  2.13101507  8082
